NORAD_CAT_ID,OBJECT_NAME,OBJECT_TYPE,EPOCH,MEAN_MOTION,ECCENTRICITY,INCLINATION,RA_OF_ASC_NODE,ARG_OF_PERICENTER,MEAN_ANOMALY,BSTAR,MEAN_MOTION_DOT,MEAN_MOTION_DDOT,TLE_LINE0,TLE_LINE1,TLE_LINE2,SEMIMAJOR_AXIS,PERIOD,APOGEE,PERIGEE,DECAYED
53169.0,STARLINK-4117,PAYLOAD,2024-06-24 23:01:49,15.08843269,0.0001461,53.2176,64.9261,79.5584,280.5573,6.314e-05,7.17e-06,0.0,0 STARLINK-4117,1 53169U 22083AP  24176.95960572  .00000717  00000-0  63140-4 0  9995,2 53169  53.2176  64.9261 0001461  79.5584 280.5573 15.08843269108182,6917.87,95.437,540.746,538.725,0.0
53169.0,STARLINK-4117,PAYLOAD,2024-06-25 22:52:36,15.0885116,0.000148,53.218,60.4653,86.134,273.9821,4.3863e-05,4.1e-06,0.0,0 STARLINK-4117,1 53169U 22083AP  24177.95319874  .00000410  00000-0  43863-4 0  9999,2 53169  53.2180  60.4653 0001480  86.1340 273.9821 15.08851160107694,6917.846,95.437,540.735,538.687,0.0
53169.0,STARLINK-4117,PAYLOAD,2024-06-26 11:35:41,15.08840505,0.0001577,53.2192,58.0891,121.1615,238.9532,0.000105,1.383e-05,0.0,0 STARLINK-4117,1 53169U 22083AP  24178.48312147  .00001383  00000-0  10500-3 0  9995,2 53169  53.2192  58.0891 0001577 121.1615 238.9532 15.08840505108418,6917.879,95.438,540.835,538.653,0.0
53169.0,STARLINK-4117,PAYLOAD,2024-06-26 22:43:23,15.08838395,0.0001413,53.2177,56.0003,110.1626,249.9518,4.3898e-05,4.11e-06,0.0,0 STARLINK-4117,1 53169U 22083AP  24178.94680478  .00000411  00000-0  43898-4 0  9999,2 53169  53.2177  56.0003 0001413 110.1626 249.9518 15.08838395107849,6917.885,95.438,540.728,538.773,0.0
53169.0,STARLINK-4117,PAYLOAD,2024-06-27 08:15:43,15.08835624,0.0001367,53.2174,54.2186,88.3011,271.8138,1.8226e-05,2e-08,0.0,0 STARLINK-4117,1 53169U 22083AP  24179.34425000  .00000002  00000-0  18226-4 0  9995,2 53169  53.2174  54.2186 0001367  88.3011 271.8138 15.08835624108542,6917.894,95.438,540.704,538.813,0.0
53169.0,STARLINK-4117,PAYLOAD,2024-06-27 22:34:11,15.08840628,0.0001351,53.2179,51.5469,99.9638,260.1506,-2.6311e-05,-7.07e-06,0.0,0 STARLINK-4117,1 53169U 22083AP  24179.94040999 -.00000707  00000-0 -26311-4 0  9999,2 53169  53.2179  51.5469 0001351  99.9638 260.1506 15.08840628107995,6917.878,95.438,540.678,538.809,0.0
53169.0,STARLINK-4117,PAYLOAD,2024-06-28 08:06:29,15.08845178,0.0001436,53.2186,49.762,99.6539,260.4616,4.2734e-05,3.92e-06,0.0,0 STARLINK-4117,1 53169U 22083AP  24180.33784570  .00000392  00000-0  42734-4 0  9999,2 53169  53.2186  49.7620 0001436  99.6539 260.4616 15.08845178108690,6917.865,95.437,540.723,538.736,0.0
53169.0,STARLINK-4117,PAYLOAD,2024-06-28 22:24:57,15.08853502,0.0001327,53.2172,47.0835,91.4515,268.6629,0.00029842,4.466e-05,0.0,0 STARLINK-4117,1 53169U 22083AP  24180.93400058  .00004466  00000-0  29842-3 0  9991,2 53169  53.2172  47.0835 0001327  91.4515 268.6629 15.08853502108141,6917.839,95.437,540.622,538.786,0.0
53169.0,STARLINK-4117,PAYLOAD,2024-06-29 19:04:59,15.08831768,0.0001308,53.217,43.2195,133.2344,226.8758,8.5973e-06,-1.51e-06,0.0,0 STARLINK-4117,1 53169U 22083AP  24181.79513391 -.00000151  00000-0  85973-5 0  9998,2 53169  53.2170  43.2195 0001308 133.2344 226.8758 15.08831768108914,6917.906,95.438,540.675,538.866,0.0
53169.0,STARLINK-4117,PAYLOAD,2024-06-29 22:15:45,15.08833238,0.0001153,53.2162,42.6211,106.2598,253.8521,-9.2882e-05,-1.765e-05,0.0,0 STARLINK-4117,1 53169U 22083AP  24181.92761245 -.00001765  00000-0 -92882-4 0  9995,2 53169  53.2162  42.6211 0001153 106.2598 253.8521 15.08833238108299,6917.901,95.438,540.564,538.968,0.0
53169.0,STARLINK-4117,PAYLOAD,2024-06-30 14:09:37,15.08838074,0.0001132,53.2166,39.6466,101.8496,258.2623,0.00010674,1.411e-05,0.0,0 STARLINK-4117,1 53169U 22083AP  24182.59001421  .00001411  00000-0  10674-3 0  9996,2 53169  53.2166  39.6466 0001132 101.8496 258.2623 15.08838074108392,6917.886,95.438,540.534,538.968,0.0
53169.0,STARLINK-4117,PAYLOAD,2024-06-30 20:31:09,15.08849899,0.0001069,53.2161,38.4598,106.7161,253.3949,0.00046374,7.102e-05,0.0,0 STARLINK-4117,1 53169U 22083AP  24182.85497110  .00007102  00000-0  46374-3 0  9998,2 53169  53.2161  38.4598 0001069 106.7161 253.3949 15.08849899109072,6917.85,95.437,540.455,538.976,0.0
53169.0,STARLINK-4117,PAYLOAD,2024-06-30 22:06:32,15.08853268,0.000112,53.2158,38.162,107.5408,252.5707,0.00076108,0.0001185,0.0,0 STARLINK-4117,1 53169U 22083AP  24182.92121161  .00011850  00000-0  76108-3 0  9999,2 53169  53.2158  38.1620 0001120 107.5408 252.5707 15.08853268108440,6917.84,95.437,540.48,538.93,0.0
53169.0,STARLINK-4117,PAYLOAD,2024-07-01 07:38:51,15.0884272,0.0001319,53.2156,36.3761,102.0308,258.0832,0.00024944,3.684e-05,0.0,0 STARLINK-4117,1 53169U 22083AP  24183.31865359  .00003684  00000-0  24944-3 0  9994,2 53169  53.2156  36.3761 0001319 102.0308 258.0832 15.08842720109142,6917.872,95.437,540.65,538.825,0.0
53169.0,STARLINK-4117,PAYLOAD,2024-07-01 14:00:24,15.08848163,0.0001562,53.2157,35.1884,88.5043,271.6128,0.00040536,6.171e-05,0.0,0 STARLINK-4117,1 53169U 22083AP  24183.58361390  .00006171  00000-0  40536-3 0  9998,2 53169  53.2157  35.1884 0001562  88.5043 271.6128 15.08848163108549,6917.855,95.437,540.801,538.64,0.0
53169.0,STARLINK-4117,PAYLOAD,2024-07-01 20:21:56,15.08846781,0.0001063,53.2157,33.9985,96.6626,263.4487,0.00039044,5.933e-05,0.0,0 STARLINK-4117,1 53169U 22083AP  24183.84857264  .00005933  00000-0  39044-3 0  9994,2 53169  53.2157  33.9985 0001063  96.6626 263.4487 15.08846781108585,6917.86,95.437,540.46,538.989,0.0
53169.0,STARLINK-4117,PAYLOAD,2024-07-02 13:51:11,15.08838878,0.0001156,53.2159,30.7286,92.642,267.4704,0.00020455,2.969e-05,0.0,0 STARLINK-4117,1 53169U 22083AP  24184.57721509  .00002969  00000-0  20455-3 0  9999,2 53169  53.2159  30.7286 0001156  92.6420 267.4704 15.08838878108693,6917.884,95.438,540.549,538.949,0.0
53169.0,STARLINK-4117,PAYLOAD,2024-07-02 20:12:43,15.0884348,0.0001107,53.2166,29.5386,98.3728,261.739,0.00011133,1.485e-05,0.0,0 STARLINK-4117,1 53169U 22083AP  24184.84217391  .00001485  00000-0  11133-3 0  9993,2 53169  53.2166  29.5386 0001107  98.3728 261.7390 15.08843480109377,6917.87,95.437,540.501,538.969,0.0
53169.0,STARLINK-4117,PAYLOAD,2024-07-03 20:03:31,15.08836563,0.0001092,53.2168,25.0782,97.1924,262.9192,0.00032586,4.902e-05,0.0,0 STARLINK-4117,1 53169U 22083AP  24185.83577940  .00004902  00000-0  32586-3 0  9994,2 53169  53.2168  25.0782 0001092  97.1924 262.9192 15.08836563109522,6917.891,95.438,540.511,539.0,0.0
53169.0,STARLINK-4117,PAYLOAD,2024-07-03 23:14:17,15.08844504,0.0001144,53.2166,24.4831,96.1672,263.945,0.00015904,2.244e-05,0.0,0 STARLINK-4117,1 53169U 22083AP  24185.96825395  .00002244  00000-0  15904-3 0  9990,2 53169  53.2166  24.4831 0001144  96.1672 263.9450 15.08844504109549,6917.867,95.437,540.523,538.94,0.0
53169.0,STARLINK-4117,PAYLOAD,2024-07-04 13:32:45,15.08834984,0.0001123,53.2159,21.8035,102.8741,257.2377,1.713e-05,-1.5e-07,0.0,0 STARLINK-4117,1 53169U 22083AP  24186.56441960 -.00000015  00000-0  17130-4 0  9998,2 53169  53.2159  21.8035 0001123 102.8741 257.2377 15.08834984109632,6917.896,95.438,540.538,538.984,0.0
53169.0,STARLINK-4117,PAYLOAD,2024-07-04 19:54:18,15.08839093,0.0001007,53.2166,20.6177,84.8345,275.2762,9.0813e-05,1.158e-05,0.0,0 STARLINK-4117,1 53169U 22083AP  24186.82937837  .00001158  00000-0  90813-4 0  9997,2 53169  53.2166  20.6177 0001007  84.8345 275.2762 15.08839093109032,6917.883,95.438,540.445,539.052,0.0
53169.0,STARLINK-4117,PAYLOAD,2024-07-05 05:26:37,15.08841497,0.0001027,53.2164,18.8312,76.8002,283.3105,0.00012896,1.765e-05,0.0,0 STARLINK-4117,1 53169U 22083AP  24187.22681745  .00001765  00000-0  12896-3 0  9994,2 53169  53.2164  18.8312 0001027  76.8002 283.3105 15.08841497109091,6917.876,95.437,540.451,539.03,0.0
53169.0,STARLINK-4117,PAYLOAD,2024-07-05 19:45:04,15.0885059,9.68e-05,53.2172,16.158,83.9218,276.1885,0.00019348,2.794e-05,0.0,0 STARLINK-4117,1 53169U 22083AP  24187.82297255  .00002794  00000-0  19348-3 0  9991,2 53169  53.2172  16.1580 0000968  83.9218 276.1885 15.08850590109829,6917.848,95.437,540.383,539.043,0.0
53169.0,STARLINK-4117,PAYLOAD,2024-07-06 13:14:20,15.08831857,0.0001535,53.2174,12.8839,75.3171,284.7991,-0.00014883,-2.655e-05,0.0,0 STARLINK-4117,1 53169U 22083AP  24188.55162151 -.00002655  00000-0 -14883-3 0  9995,2 53169  53.2174  12.8839 0001535  75.3171 284.7991 15.08831857109935,6917.905,95.438,540.832,538.708,0.0
53169.0,STARLINK-4117,PAYLOAD,2024-07-06 21:11:15,15.08837547,0.0001316,53.2184,11.3978,80.9625,279.1516,3.9274e-06,-2.25e-06,0.0,0 STARLINK-4117,1 53169U 22083AP  24188.88282078 -.00000225  00000-0  39274-5 0  9995,2 53169  53.2184  11.3978 0001316  80.9625 279.1516 15.08837547109345,6917.888,95.438,540.663,538.842,0.0
53169.0,STARLINK-4117,PAYLOAD,2024-07-07 05:08:11,15.08837097,0.000136,53.2185,9.9108,81.3681,278.7465,7.0273e-06,-1.76e-06,0.0,0 STARLINK-4117,1 53169U 22083AP  24189.21402197 -.00000176  00000-0  70273-5 0  9998,2 53169  53.2185   9.9108 0001360  81.3681 278.7465 15.08837097110036,6917.889,95.438,540.695,538.813,0.0
53169.0,STARLINK-4117,PAYLOAD,2024-07-07 19:26:39,15.08848461,0.0001224,53.218,7.2341,81.1701,278.943,0.00020914,3.043e-05,0.0,0 STARLINK-4117,1 53169U 22083AP  24189.81017721  .00003043  00000-0  20914-3 0  9999,2 53169  53.2180   7.2341 0001224  81.1701 278.9430 15.08848461110122,6917.855,95.437,540.566,538.873,0.0
53169.0,STARLINK-4117,PAYLOAD,2024-07-08 04:58:58,15.08838661,0.0001457,53.2172,5.45,79.5448,280.5709,0.00017808,2.547e-05,0.0,0 STARLINK-4117,1 53169U 22083AP  24190.20762263  .00002547  00000-0  17808-3 0  9998,2 53169  53.2172   5.4500 0001457  79.5448 280.5709 15.08838661110182,6917.884,95.438,540.757,538.742,0.0
53169.0,STARLINK-4117,PAYLOAD,2024-07-08 11:20:31,15.08840706,0.0001632,53.2183,4.2615,80.8614,279.2562,0.00021357,3.113e-05,0.0,0 STARLINK-4117,1 53169U 22083AP  24190.47258368  .00003113  00000-0  21357-3 0  9997,2 53169  53.2183   4.2615 0001632  80.8614 279.2562 15.08840706109580,6917.878,95.438,540.872,538.614,0.0
